NORAD_CAT_ID,OBJECT_NAME,OBJECT_TYPE,EPOCH,MEAN_MOTION,ECCENTRICITY,INCLINATION,RA_OF_ASC_NODE,ARG_OF_PERICENTER,MEAN_ANOMALY,BSTAR,MEAN_MOTION_DOT,MEAN_MOTION_DDOT,TLE_LINE0,TLE_LINE1,TLE_LINE2,SEMIMAJOR_AXIS,PERIOD,APOGEE,PERIGEE,DECAYED
54003.0,STARLINK-5114,PAYLOAD,2023-02-06 08:07:30,15.08829128,0.0001406,53.2141,234.8008,96.7021,263.4131,-2.4464e-05,-6.77e-06,0.0,0 STARLINK-5114,1 54003U 22125AR  23037.33854524 -.00000677  00000-0 -24464-4 0  9999,2 54003  53.2141 234.8008 0001406  96.7021 263.4131 15.08829128 19274,6917.914,95.438,540.751,538.806,0.0
54003.0,STARLINK-5114,PAYLOAD,2023-02-06 19:15:12,15.08820208,0.0001231,53.214,232.7187,92.9819,267.1314,0.00028927,4.316e-05,0.0,0 STARLINK-5114,1 54003U 22125AR  23037.80222981  .00004316  00000-0  28927-3 0  9996,2 54003  53.2140 232.7187 0001231  92.9819 267.1314 15.08820208 19349,6917.941,95.439,540.657,538.954,0.0
54003.0,STARLINK-5114,PAYLOAD,2023-02-06 22:25:58,15.08831598,0.0001278,53.2139,232.124,90.1014,270.0124,0.00017059,2.427e-05,0.0,0 STARLINK-5114,1 54003U 22125AR  23037.93470591  .00002427  00000-0  17059-3 0  9997,2 54003  53.2139 232.1240 0001278  90.1014 270.0124 15.08831598 19413,6917.906,95.438,540.655,538.887,0.0
54003.0,STARLINK-5114,PAYLOAD,2023-02-07 12:44:26,15.08840071,0.000122,53.2141,229.4481,85.6706,274.4426,0.00030708,4.603e-05,0.0,0 STARLINK-5114,1 54003U 22125AR  23038.53086313  .00004603  00000-0  30708-3 0  9993,2 54003  53.2141 229.4481 0001220  85.6706 274.4426 15.08840071 19459,6917.88,95.438,540.589,538.901,0.0
54003.0,STARLINK-5114,PAYLOAD,2023-02-07 19:05:59,15.08855527,0.0001254,53.2125,228.2582,84.1058,276.0077,0.00064034,9.922e-05,0.0,0 STARLINK-5114,1 54003U 22125AR  23038.79582597  .00009922  00000-0  64034-3 0  9994,2 54003  53.2125 228.2582 0001254  84.1058 276.0077 15.08855527 19543,6917.833,95.437,540.565,538.83,0.0
54003.0,STARLINK-5114,PAYLOAD,2023-02-08 07:49:04,15.0885473,0.0001368,53.2126,225.8796,95.0455,265.0693,0.00040478,6.163e-05,0.0,0 STARLINK-5114,1 54003U 22125AR  23039.32574448  .00006163  00000-0  40478-3 0  9990,2 54003  53.2126 225.8796 0001368  95.0455 265.0693 15.08854730 19628,6917.835,95.437,540.647,538.754,0.0
54003.0,STARLINK-5114,PAYLOAD,2023-02-08 17:21:23,15.08847314,0.0001118,53.2128,224.0943,91.1487,268.9633,0.00010394,1.367e-05,0.0,0 STARLINK-5114,1 54003U 22125AR  23039.72318382  .00001367  00000-0  10394-3 0  9992,2 54003  53.2128 224.0943 0001118  91.1487 268.9633 15.08847314 19682,6917.858,95.437,540.496,538.95,0.0
54003.0,STARLINK-5114,PAYLOAD,2023-02-09 18:47:33,15.08846305,0.0001053,53.213,219.3356,95.0526,265.0586,8.0533e-05,9.94e-06,0.0,0 STARLINK-5114,1 54003U 22125AR  23040.78302250  .00000994  00000-0  80533-4 0  9995,2 54003  53.2130 219.3356 0001053  95.0526 265.0586 15.08846305 19847,6917.861,95.437,540.455,538.998,0.0
54003.0,STARLINK-5114,PAYLOAD,2023-02-10 15:27:34,15.08839692,0.0001198,53.2151,215.4732,111.1324,248.9796,4.521e-05,4.32e-06,0.0,0 STARLINK-5114,1 54003U 22125AR  23041.64414609  .00000432  00000-0  45210-4 0  9993,2 54003  53.2151 215.4732 0001198 111.1324 248.9796 15.08839692 19979,6917.881,95.438,540.575,538.918,0.0
54003.0,STARLINK-5114,PAYLOAD,2023-02-10 17:02:57,15.08840803,0.0001379,53.2147,215.1754,119.3261,240.7869,-1.335e-05,-5e-06,0.0,0 STARLINK-5114,1 54003U 22125AR  23041.71038496 -.00000500  00000-0 -13350-4 0  9995,2 54003  53.2147 215.1754 0001379 119.3261 240.7869 15.08840803 19939,6917.878,95.438,540.697,538.789,0.0
54003.0,STARLINK-5114,PAYLOAD,2023-02-11 10:32:12,15.08832214,0.0001433,53.2166,211.9054,110.8627,249.2519,-3.1467e-05,-7.89e-06,0.0,0 STARLINK-5114,1 54003U 22125AR  23042.43903764 -.00000789  00000-0 -31467-4 0  9992,2 54003  53.2166 211.9054 0001433 110.8627 249.2519 15.08832214 20092,6917.904,95.438,540.761,538.778,0.0
54003.0,STARLINK-5114,PAYLOAD,2023-02-11 12:07:35,15.08830525,0.0001078,53.2149,211.6062,90.7571,269.3545,1.6349e-05,-2.8e-07,0.0,0 STARLINK-5114,1 54003U 22125AR  23042.50527731 -.00000028  00000-0  16349-4 0  9993,2 54003  53.2149 211.6062 0001078  90.7571 269.3545 15.08830525 20059,6917.909,95.438,540.52,539.029,0.0
54003.0,STARLINK-5114,PAYLOAD,2023-02-11 13:42:59,15.08831931,0.0001086,53.2142,211.308,90.9126,269.1991,2.7287e-05,1.46e-06,0.0,0 STARLINK-5114,1 54003U 22125AR  23042.57151657  .00000146  00000-0  27287-4 0  9993,2 54003  53.2142 211.3080 0001086  90.9126 269.1991 15.08831931 20062,6917.905,95.438,540.521,539.019,0.0
54003.0,STARLINK-5114,PAYLOAD,2023-02-11 16:53:44,15.08837754,0.0001078,53.2146,210.7134,90.0886,270.0229,4.5514e-05,4.37e-06,0.0,0 STARLINK-5114,1 54003U 22125AR  23042.70399292  .00000437  00000-0  45514-4 0  9993,2 54003  53.2146 210.7134 0001078  90.0886 270.0229 15.08837754 20136,6917.887,95.438,540.498,539.007,0.0
54003.0,STARLINK-5114,PAYLOAD,2023-02-12 11:58:22,15.08838779,0.0001129,53.2138,207.1443,88.128,271.9841,0.00014743,2.059e-05,0.0,0 STARLINK-5114,1 54003U 22125AR  23043.49887278  .00002059  00000-0  14743-3 0  9997,2 54003  53.2138 207.1443 0001129  88.1280 271.9841 15.08838779 20209,6917.884,95.438,540.53,538.968,0.0
54003.0,STARLINK-5114,PAYLOAD,2023-02-13 10:13:46,15.08846033,0.0001203,53.2133,202.9803,92.9787,267.1342,0.00027225,4.048e-05,0.0,0 STARLINK-5114,1 54003U 22125AR  23044.42623037  .00004048  00000-0  27225-3 0  9991,2 54003  53.2133 202.9803 0001203  92.9787 267.1342 15.08846033 20390,6917.862,95.437,540.559,538.895,0.0
54003.0,STARLINK-5114,PAYLOAD,2023-02-13 13:24:32,15.0884131,0.0001184,53.2134,202.3858,92.864,267.2488,0.00015627,2.2e-05,0.0,0 STARLINK-5114,1 54003U 22125AR  23044.55871194  .00002200  00000-0  15627-3 0  9995,2 54003  53.2134 202.3858 0001184  92.8640 267.2488 15.08841310 20362,6917.876,95.437,540.56,538.922,0.0
54003.0,STARLINK-5114,PAYLOAD,2023-02-13 16:35:18,15.08841953,0.0001203,53.2133,201.7911,90.9399,269.1731,0.00014462,2.015e-05,0.0,0 STARLINK-5114,1 54003U 22125AR  23044.69119191  .00002015  00000-0  14462-3 0  9992,2 54003  53.2133 201.7911 0001203  90.9399 269.1731 15.08841953 20439,6917.874,95.437,540.572,538.907,0.0
54003.0,STARLINK-5114,PAYLOAD,2023-02-14 10:04:33,15.08841128,0.0001286,53.2135,198.5198,93.4284,266.6855,9.5702e-05,1.236e-05,0.0,0 STARLINK-5114,1 54003U 22125AR  23045.41983202  .00001236  00000-0  95702-4 0  9996,2 54003  53.2135 198.5198 0001286  93.4284 266.6855 15.08841128 20492,6917.877,95.437,540.632,538.852,0.0
54003.0,STARLINK-5114,PAYLOAD,2023-02-14 16:26:05,15.08844743,0.000124,53.2138,197.3302,93.3029,266.8105,0.00013745,1.901e-05,0.0,0 STARLINK-5114,1 54003U 22125AR  23045.68478992  .00001901  00000-0  13745-3 0  9995,2 54003  53.2138 197.3302 0001240  93.3029 266.8105 15.08844743 20536,6917.866,95.437,540.589,538.873,0.0
54003.0,STARLINK-5114,PAYLOAD,2023-02-15 03:33:47,15.08849089,0.0001179,53.2144,195.2492,96.9238,263.1888,8.2419e-05,1.024e-05,0.0,0 STARLINK-5114,1 54003U 22125AR  23046.14846528  .00001024  00000-0  82419-4 0  9992,2 54003  53.2144 195.2492 0001179  96.9238 263.1888 15.08849089 20651,6917.853,95.437,540.533,538.902,0.0
54003.0,STARLINK-5114,PAYLOAD,2023-02-15 09:55:20,15.08836911,0.0001363,53.2134,194.0597,97.6263,262.4884,3.1598e-05,2.15e-06,0.0,0 STARLINK-5114,1 54003U 22125AR  23046.41343252  .00000215  00000-0  31598-4 0  9991,2 54003  53.2134 194.0597 0001363  97.6263 262.4884 15.08836911 20696,6917.89,95.438,540.698,538.812,0.0
54003.0,STARLINK-5114,PAYLOAD,2023-02-15 13:06:06,15.08842197,0.0001279,53.2142,193.4647,92.2705,267.8433,9.5139e-05,1.227e-05,0.0,0 STARLINK-5114,1 54003U 22125AR  23046.54591007  .00001227  00000-0  95139-4 0  9993,2 54003  53.2142 193.4647 0001279  92.2705 267.8433 15.08842197 20661,6917.874,95.437,540.623,538.854,0.0
54003.0,STARLINK-5114,PAYLOAD,2023-02-16 12:56:53,15.08841058,0.0001339,53.2137,189.0032,105.9366,254.1774,0.00010713,1.418e-05,0.0,0 STARLINK-5114,1 54003U 22125AR  23047.53950712  .00001418  00000-0  10713-3 0  9991,2 54003  53.2137 189.0032 0001339 105.9366 254.1774 15.08841058 20815,6917.877,95.437,540.668,538.816,0.0
54003.0,STARLINK-5114,PAYLOAD,2023-02-16 16:07:39,15.08849567,0.0001366,53.2137,188.4094,96.349,263.7658,0.00023854,3.511e-05,0.0,0 STARLINK-5114,1 54003U 22125AR  23047.67198485  .00003511  00000-0  23854-3 0  9993,2 54003  53.2137 188.4094 0001366  96.3490 263.7658 15.08849567 20884,6917.851,95.437,540.661,538.771,0.0
54003.0,STARLINK-5114,PAYLOAD,2023-02-17 08:01:31,15.08835752,0.0001202,53.2136,185.4343,102.7941,257.3186,5.509e-05,5.89e-06,0.0,0 STARLINK-5114,1 54003U 22125AR  23048.33439015  .00000589  00000-0  55090-4 0  9994,2 54003  53.2136 185.4343 0001202 102.7941 257.3186 15.08835752 20986,6917.893,95.438,540.59,538.927,0.0
54003.0,STARLINK-5114,PAYLOAD,2023-02-17 12:47:40,15.08834794,0.0001286,53.2141,184.5417,104.7105,255.403,2.5191e-05,1.13e-06,0.0,0 STARLINK-5114,1 54003U 22125AR  23048.53311264  .00000113  00000-0  25191-4 0  9993,2 54003  53.2141 184.5417 0001286 104.7105 255.4030 15.08834794 20960,6917.896,95.438,540.651,538.872,0.0
54003.0,STARLINK-5114,PAYLOAD,2023-02-17 15:58:27,15.08836994,9.7e-05,53.2141,183.949,98.2498,261.8604,5.6747e-05,6.15e-06,0.0,0 STARLINK-5114,1 54003U 22125AR  23048.66559064  .00000615  00000-0  56747-4 0  9997,2 54003  53.2141 183.9490 0000970  98.2498 261.8604 15.08836994 20989,6917.89,95.438,540.426,539.084,0.0
54003.0,STARLINK-5114,PAYLOAD,2023-02-18 11:03:06,15.08817675,0.000102,53.2149,180.3823,93.2238,266.8871,4.0341e-05,3.54e-06,0.0,0 STARLINK-5114,1 54003U 22125AR  23049.46048940  .00000354  00000-0  40341-4 0  9995,2 54003  53.2149 180.3823 0001020  93.2238 266.8871 15.08817675 21158,6917.949,95.439,540.519,539.108,0.0
54003.0,STARLINK-5114,PAYLOAD,2023-02-18 19:00:01,15.08831768,0.000108,53.2151,178.8939,114.4699,245.6406,5.0645e-05,5.18e-06,0.0,0 STARLINK-5114,1 54003U 22125AR  23049.79168131  .00000518  00000-0  50645-4 0  9996,2 54003  53.2151 178.8939 0001080 114.4699 245.6406 15.08831768 21208,6917.906,95.438,540.518,539.023,0.0
